<?xml version="1.0" encoding="UTF-8"?>
<ndm xmlns:xsi="http://www.w3.org/2001/XMLSchema-instance" xsi:noNamespaceSchemaLocation="https://sanaregistry.org/r/ndmxml_unqualified/ndmxml-2.0.0-master-2.0.xsd">
<omm id="CCSDS_OMM_VERS" version="2.0">
<header><CREATION_DATE/><ORIGINATOR/></header><body><segment><metadata><OBJECT_NAME>ONEWEB-0628</OBJECT_NAME><OBJECT_ID>2023-004AF</OBJECT_ID><CENTER_NAME>EARTH</CENTER_NAME><REF_FRAME>TEME</REF_FRAME><TIME_SYSTEM>UTC</TIME_SYSTEM><MEAN_ELEMENT_THEORY>SGP4</MEAN_ELEMENT_THEORY></metadata><data><meanElements><EPOCH>2025-06-01T12:33:20.619648</EPOCH><MEAN_MOTION>13.12444967</MEAN_MOTION><ECCENTRICITY>.0002172</ECCENTRICITY><INCLINATION>87.8891</INCLINATION><RA_OF_ASC_NODE>66.3610</RA_OF_ASC_NODE><ARG_OF_PERICENTER>59.3928</ARG_OF_PERICENTER><MEAN_ANOMALY>300.7415</MEAN_ANOMALY></meanElements><tleParameters><EPHEMERIS_TYPE>0</EPHEMERIS_TYPE><CLASSIFICATION_TYPE>U</CLASSIFICATION_TYPE><NORAD_CAT_ID>55169</NORAD_CAT_ID><ELEMENT_SET_NO>999</ELEMENT_SET_NO><REV_AT_EPOCH>11810</REV_AT_EPOCH><BSTAR>.12798E-2</BSTAR><MEAN_MOTION_DOT>.473E-5</MEAN_MOTION_DOT><MEAN_MOTION_DDOT>0</MEAN_MOTION_DDOT></tleParameters></data></segment></body></omm>
<omm id="CCSDS_OMM_VERS" version="2.0">
<header><CREATION_DATE/><ORIGINATOR/></header><body><segment><metadata><OBJECT_NAME>ONEWEB-0629</OBJECT_NAME><OBJECT_ID>2023-004AG</OBJECT_ID><CENTER_NAME>EARTH</CENTER_NAME><REF_FRAME>TEME</REF_FRAME><TIME_SYSTEM>UTC</TIME_SYSTEM><MEAN_ELEMENT_THEORY>SGP4</MEAN_ELEMENT_THEORY></metadata><data><meanElements><EPOCH>2025-06-01T12:30:50.207616</EPOCH><MEAN_MOTION>13.17648684</MEAN_MOTION><ECCENTRICITY>.0001776</ECCENTRICITY><INCLINATION>87.9083</INCLINATION><RA_OF_ASC_NODE>81.6672</RA_OF_ASC_NODE><ARG_OF_PERICENTER>70.4229</ARG_OF_PERICENTER><MEAN_ANOMALY>289.7094</MEAN_ANOMALY></meanElements><tleParameters><EPHEMERIS_TYPE>0</EPHEMERIS_TYPE><CLASSIFICATION_TYPE>U</CLASSIFICATION_TYPE><NORAD_CAT_ID>55170</NORAD_CAT_ID><ELEMENT_SET_NO>999</ELEMENT_SET_NO><REV_AT_EPOCH>11745</REV_AT_EPOCH><BSTAR>.20399E-3</BSTAR><MEAN_MOTION_DOT>.92E-6</MEAN_MOTION_DOT><MEAN_MOTION_DDOT>0</MEAN_MOTION_DDOT></tleParameters></data></segment></body></omm>
<omm id="CCSDS_OMM_VERS" version="2.0">
<header><CREATION_DATE/><ORIGINATOR/></header><body><segment><metadata><OBJECT_NAME>ONEWEB-0631</OBJECT_NAME><OBJECT_ID>2023-004AH</OBJECT_ID><CENTER_NAME>EARTH</CENTER_NAME><REF_FRAME>TEME</REF_FRAME><TIME_SYSTEM>UTC</TIME_SYSTEM><MEAN_ELEMENT_THEORY>SGP4</MEAN_ELEMENT_THEORY></metadata><data><meanElements><EPOCH>2025-06-01T10:17:14.497728</EPOCH><MEAN_MOTION>13.18686974</MEAN_MOTION><ECCENTRICITY>.0002457</ECCENTRICITY><INCLINATION>87.9159</INCLINATION><RA_OF_ASC_NODE>51.1001</RA_OF_ASC_NODE><ARG_OF_PERICENTER>81.6043</ARG_OF_PERICENTER><MEAN_ANOMALY>278.5368</MEAN_ANOMALY></meanElements><tleParameters><EPHEMERIS_TYPE>0</EPHEMERIS_TYPE><CLASSIFICATION_TYPE>U</CLASSIFICATION_TYPE><NORAD_CAT_ID>55171</NORAD_CAT_ID><ELEMENT_SET_NO>999</ELEMENT_SET_NO><REV_AT_EPOCH>11949</REV_AT_EPOCH><BSTAR>.22647E-3</BSTAR><MEAN_MOTION_DOT>.102E-5</MEAN_MOTION_DOT><MEAN_MOTION_DDOT>0</MEAN_MOTION_DDOT></tleParameters></data></segment></body></omm>
<omm id="CCSDS_OMM_VERS" version="2.0">
<header><CREATION_DATE/><ORIGINATOR/></header><body><segment><metadata><OBJECT_NAME>ONEWEB-0709</OBJECT_NAME><OBJECT_ID>2023-004AJ</OBJECT_ID><CENTER_NAME>EARTH</CENTER_NAME><REF_FRAME>TEME</REF_FRAME><TIME_SYSTEM>UTC</TIME_SYSTEM><MEAN_ELEMENT_THEORY>SGP4</MEAN_ELEMENT_THEORY></metadata><data><meanElements><EPOCH>2025-06-01T13:26:02.339520</EPOCH><MEAN_MOTION>13.11417074</MEAN_MOTION><ECCENTRICITY>.000272</ECCENTRICITY><INCLINATION>87.8832</INCLINATION><RA_OF_ASC_NODE>96.9640</RA_OF_ASC_NODE><ARG_OF_PERICENTER>96.8776</ARG_OF_PERICENTER><MEAN_ANOMALY>263.2662</MEAN_ANOMALY></meanElements><tleParameters><EPHEMERIS_TYPE>0</EPHEMERIS_TYPE><CLASSIFICATION_TYPE>U</CLASSIFICATION_TYPE><NORAD_CAT_ID>55172</NORAD_CAT_ID><ELEMENT_SET_NO>999</ELEMENT_SET_NO><REV_AT_EPOCH>11598</REV_AT_EPOCH><BSTAR>-.12531E-2</BSTAR><MEAN_MOTION_DOT>-.431E-5</MEAN_MOTION_DOT><MEAN_MOTION_DDOT>0</MEAN_MOTION_DDOT></tleParameters></data></segment></body></omm>
<omm id="CCSDS_OMM_VERS" version="2.0">
<header><CREATION_DATE/><ORIGINATOR/></header><body><segment><metadata><OBJECT_NAME>ONEWEB-0710</OBJECT_NAME><OBJECT_ID>2023-004AK</OBJECT_ID><CENTER_NAME>EARTH</CENTER_NAME><REF_FRAME>TEME</REF_FRAME><TIME_SYSTEM>UTC</TIME_SYSTEM><MEAN_ELEMENT_THEORY>SGP4</MEAN_ELEMENT_THEORY></metadata><data><meanElements><EPOCH>2025-06-01T12:51:30.295584</EPOCH><MEAN_MOTION>13.17648420</MEAN_MOTION><ECCENTRICITY>.0002106</ECCENTRICITY><INCLINATION>87.9062</INCLINATION><RA_OF_ASC_NODE>81.6727</RA_OF_ASC_NODE><ARG_OF_PERICENTER>76.8706</ARG_OF_PERICENTER><MEAN_ANOMALY>283.2660</MEAN_ANOMALY></meanElements><tleParameters><EPHEMERIS_TYPE>0</EPHEMERIS_TYPE><CLASSIFICATION_TYPE>U</CLASSIFICATION_TYPE><NORAD_CAT_ID>55173</NORAD_CAT_ID><ELEMENT_SET_NO>999</ELEMENT_SET_NO><REV_AT_EPOCH>11745</REV_AT_EPOCH><BSTAR>.14363E-4</BSTAR><MEAN_MOTION_DOT>.18E-6</MEAN_MOTION_DOT><MEAN_MOTION_DDOT>0</MEAN_MOTION_DDOT></tleParameters></data></segment></body></omm>
<omm id="CCSDS_OMM_VERS" version="2.0">
<header><CREATION_DATE/><ORIGINATOR/></header><body><segment><metadata><OBJECT_NAME>ONEWEB-0711</OBJECT_NAME><OBJECT_ID>2023-004AL</OBJECT_ID><CENTER_NAME>EARTH</CENTER_NAME><REF_FRAME>TEME</REF_FRAME><TIME_SYSTEM>UTC</TIME_SYSTEM><MEAN_ELEMENT_THEORY>SGP4</MEAN_ELEMENT_THEORY></metadata><data><meanElements><EPOCH>2025-06-01T14:34:24.195936</EPOCH><MEAN_MOTION>13.11417507</MEAN_MOTION><ECCENTRICITY>.0002521</ECCENTRICITY><INCLINATION>87.8831</INCLINATION><RA_OF_ASC_NODE>96.9223</RA_OF_ASC_NODE><ARG_OF_PERICENTER>63.7967</ARG_OF_PERICENTER><MEAN_ANOMALY>296.3420</MEAN_ANOMALY></meanElements><tleParameters><EPHEMERIS_TYPE>0</EPHEMERIS_TYPE><CLASSIFICATION_TYPE>U</CLASSIFICATION_TYPE><NORAD_CAT_ID>55174</NORAD_CAT_ID><ELEMENT_SET_NO>999</ELEMENT_SET_NO><REV_AT_EPOCH>11595</REV_AT_EPOCH><BSTAR>.15096E-2</BSTAR><MEAN_MOTION_DOT>.548E-5</MEAN_MOTION_DOT><MEAN_MOTION_DDOT>0</MEAN_MOTION_DDOT></tleParameters></data></segment></body></omm>
<omm id="CCSDS_OMM_VERS" version="2.0">
<header><CREATION_DATE/><ORIGINATOR/></header><body><segment><metadata><OBJECT_NAME>ONEWEB-0713</OBJECT_NAME><OBJECT_ID>2023-004AM</OBJECT_ID><CENTER_NAME>EARTH</CENTER_NAME><REF_FRAME>TEME</REF_FRAME><TIME_SYSTEM>UTC</TIME_SYSTEM><MEAN_ELEMENT_THEORY>SGP4</MEAN_ELEMENT_THEORY></metadata><data><meanElements><EPOCH>2025-06-01T13:11:23.819136</EPOCH><MEAN_MOTION>13.11416217</MEAN_MOTION><ECCENTRICITY>.000217</ECCENTRICITY><INCLINATION>87.8829</INCLINATION><RA_OF_ASC_NODE>96.9415</RA_OF_ASC_NODE><ARG_OF_PERICENTER>73.8744</ARG_OF_PERICENTER><MEAN_ANOMALY>286.2622</MEAN_ANOMALY></meanElements><tleParameters><EPHEMERIS_TYPE>0</EPHEMERIS_TYPE><CLASSIFICATION_TYPE>U</CLASSIFICATION_TYPE><NORAD_CAT_ID>55175</NORAD_CAT_ID><ELEMENT_SET_NO>999</ELEMENT_SET_NO><REV_AT_EPOCH>11593</REV_AT_EPOCH><BSTAR>-.45282E-3</BSTAR><MEAN_MOTION_DOT>-.148E-5</MEAN_MOTION_DOT><MEAN_MOTION_DDOT>0</MEAN_MOTION_DDOT></tleParameters></data></segment></body></omm>
<omm id="CCSDS_OMM_VERS" version="2.0">
<header><CREATION_DATE/><ORIGINATOR/></header><body><segment><metadata><OBJECT_NAME>ONEWEB-0715</OBJECT_NAME><OBJECT_ID>2023-004AN</OBJECT_ID><CENTER_NAME>EARTH</CENTER_NAME><REF_FRAME>TEME</REF_FRAME><TIME_SYSTEM>UTC</TIME_SYSTEM><MEAN_ELEMENT_THEORY>SGP4</MEAN_ELEMENT_THEORY></metadata><data><meanElements><EPOCH>2025-06-01T13:04:03.833184</EPOCH><MEAN_MOTION>13.11413929</MEAN_MOTION><ECCENTRICITY>.0002373</ECCENTRICITY><INCLINATION>87.8829</INCLINATION><RA_OF_ASC_NODE>96.9430</RA_OF_ASC_NODE><ARG_OF_PERICENTER>84.4502</ARG_OF_PERICENTER><MEAN_ANOMALY>275.6896</MEAN_ANOMALY></meanElements><tleParameters><EPHEMERIS_TYPE>0</EPHEMERIS_TYPE><CLASSIFICATION_TYPE>U</CLASSIFICATION_TYPE><NORAD_CAT_ID>55176</NORAD_CAT_ID><ELEMENT_SET_NO>999</ELEMENT_SET_NO><REV_AT_EPOCH>11597</REV_AT_EPOCH><BSTAR>.20762E-3</BSTAR><MEAN_MOTION_DOT>.86E-6</MEAN_MOTION_DOT><MEAN_MOTION_DDOT>0</MEAN_MOTION_DDOT></tleParameters></data></segment></body></omm>

</ndm>
