ONEWEB-0628             
1 55169U 23004AF  25152.52315532  .00000473  00000+0  12798-2 0  9998
2 55169  87.8891  66.3610 0002172  59.3928 300.7415 13.12444967118101
ONEWEB-0629             
1 55170U 23004AG  25152.52141444  .00000092  00000+0  20399-3 0  9993
2 55170  87.9083  81.6672 0001776  70.4229 289.7094 13.17648684117455
ONEWEB-0631             
1 55171U 23004AH  25152.42864002  .00000102  00000+0  22647-3 0  9995
2 55171  87.9159  51.1001 0002457  81.6043 278.5368 13.18686974119494
ONEWEB-0709             
1 55172U 23004AJ  25152.55974930 -.00000431  00000+0 -12531-2 0  9999
2 55172  87.8832  96.9640 0002720  96.8776 263.2662 13.11417074115986
ONEWEB-0710             
1 55173U 23004AK  25152.53576731  .00000018  00000+0  14363-4 0  9991
2 55173  87.9062  81.6727 0002106  76.8706 283.2660 13.17648420117450
ONEWEB-0711             
1 55174U 23004AL  25152.60722449  .00000548  00000+0  15096-2 0  9999
2 55174  87.8831  96.9223 0002521  63.7967 296.3420 13.11417507115955
ONEWEB-0713             
1 55175U 23004AM  25152.54958124 -.00000148  00000+0 -45282-3 0  9993
2 55175  87.8829  96.9415 0002170  73.8744 286.2622 13.11416217115938
ONEWEB-0715             
1 55176U 23004AN  25152.54448881  .00000086  00000+0  20762-3 0  9993
2 55176  87.8829  96.9430 0002373  84.4502 275.6896 13.11413929115977
